FLOCK 4H-17             
1 66720U 25276BG  26068.50940711  .00016485  00000+0  77232-3 0  9999
2 66720  97.4298 143.9091 0002134 323.7123  36.3967 15.19779499 15292
TRANSPORTER-15 OBJECT CY
1 66760U 25276CY  26068.70483155  .00006292  00000+0  30148-3 0  9999
2 66760  97.4254 144.0461 0000873 100.2944 259.8389 15.19273890 15326
